2025-313AE              
1 67276U 25313AE  26017.49070434  .00008007  00000+0  37102-3 0  9999
2 67276  97.4086  94.6105 0014677 170.6402 189.5110 15.20254744  3039
2025-313AF              
1 67277U 25313AF  26017.49097818  .00007317  00000+0  33969-3 0  9995
2 67277  97.4089  94.6109 0014683 170.5043 189.6473 15.20217975  3032
2025-313AG              
1 67278U 25313AG  26017.49078855  .00007031  00000+0  32642-3 0  9996
2 67278  97.4091  94.6118 0014633 170.3545 189.7974 15.20234447  3047
GALAPAGOS-UTE-SWSU      
1 67279U 25313AH  26017.49006028  .00008846  00000+0  40875-3 0  9992
2 67279  97.4103  94.6155 0015194 167.5333 192.6282 15.20314357  3032
2025-313AJ              
1 67280U 25313AJ  26017.48569972  .00006217  00000+0  28602-3 0  9999
2 67280  97.4173  94.6270 0014134 164.1291 196.0390 15.20600452  3030
2025-313AK              
1 67281U 25313AK  26017.55031514  .00005874  00000+0  26983-3 0  9992
2 67281  97.4057  94.6736 0012860 162.7148 197.4528 15.20692162  3046
2025-313AL              
1 67282U 25313AL  26017.61129232  .00006020  00000+0  27351-3 0  9999
2 67282  97.4105  94.7455 0011634 161.4461 198.7201 15.21072465  3054
HORS 5                  
1 67283U 25313AM  26017.61025460  .00008848  00000+0  39878-3 0  9995
2 67283  97.4114  94.7493 0011518 161.3271 198.8389 15.21216375  3054
LOBACHEVSKY (RS83S)     
1 67284U 25313AN  26017.61149901  .00003731  00000+0  17108-3 0  9991
2 67284  97.4097  94.7432 0011528 161.2837 198.8825 15.21011342  3058
NASBSAT-2               
1 67285U 25313AP  26017.60935737  .00008530  00000+0  38398-3 0  9997
2 67285  97.4092  94.7437 0011146 162.6785 197.4833 15.21273339  3052
2025-313AQ              
1 67286U 25313AQ  26016.95102667  .00009341  00000+0  42043-3 0  9996
2 67286  97.4113  94.1113 0010797 159.8863 200.2800 15.21252048  2957
LUCA (RS90S)            
1 67287U 25313AR  26017.60801028  .00009465  00000+0  42418-3 0  9990
2 67287  97.4113  94.7602 0010733 159.4542 200.7127 15.21397508  3057
