CCSDS_OMM_VERS = 2.0
CREATION_DATE  = 
ORIGINATOR     = 

OBJECT_NAME    = 2025-313AE
OBJECT_ID      = 2025-313AE
CENTER_NAME    = EARTH
REF_FRAME      = TEME
TIME_SYSTEM    = UTC
MEAN_ELEMENT_THEORY = SGP/SGP4

EPOCH          = 2026-01-17T11:46:36.854976
MEAN_MOTION    = 15.20254744
ECCENTRICITY   = .0014677
INCLINATION    = 97.4086
RA_OF_ASC_NODE = 94.6105
ARG_OF_PERICENTER = 170.6402
MEAN_ANOMALY   = 189.5110

EPHEMERIS_TYPE = 0
CLASSIFICATION_TYPE = U
NORAD_CAT_ID   = 67276
ELEMENT_SET_NO = 999
REV_AT_EPOCH   = 303
BSTAR          = .37101658E-3
MEAN_MOTION_DOT = .8007E-4
MEAN_MOTION_DDOT = 0

CCSDS_OMM_VERS = 2.0
CREATION_DATE  = 
ORIGINATOR     = 

OBJECT_NAME    = 2025-313AF
OBJECT_ID      = 2025-313AF
CENTER_NAME    = EARTH
REF_FRAME      = TEME
TIME_SYSTEM    = UTC
MEAN_ELEMENT_THEORY = SGP/SGP4

EPOCH          = 2026-01-17T11:47:00.514752
MEAN_MOTION    = 15.20217975
ECCENTRICITY   = .00146839
INCLINATION    = 97.4089
RA_OF_ASC_NODE = 94.6109
ARG_OF_PERICENTER = 170.5043
MEAN_ANOMALY   = 189.6473

EPHEMERIS_TYPE = 0
CLASSIFICATION_TYPE = U
NORAD_CAT_ID   = 67277
ELEMENT_SET_NO = 999
REV_AT_EPOCH   = 303
BSTAR          = .33969441E-3
MEAN_MOTION_DOT = .7317E-4
MEAN_MOTION_DDOT = 0

CCSDS_OMM_VERS = 2.0
CREATION_DATE  = 
ORIGINATOR     = 

OBJECT_NAME    = 2025-313AG
OBJECT_ID      = 2025-313AG
CENTER_NAME    = EARTH
REF_FRAME      = TEME
TIME_SYSTEM    = UTC
MEAN_ELEMENT_THEORY = SGP/SGP4

EPOCH          = 2026-01-17T11:46:44.130720
MEAN_MOTION    = 15.20234447
ECCENTRICITY   = .00146333
INCLINATION    = 97.4091
RA_OF_ASC_NODE = 94.6118
ARG_OF_PERICENTER = 170.3545
MEAN_ANOMALY   = 189.7974

EPHEMERIS_TYPE = 0
CLASSIFICATION_TYPE = U
NORAD_CAT_ID   = 67278
ELEMENT_SET_NO = 999
REV_AT_EPOCH   = 304
BSTAR          = .32642355E-3
MEAN_MOTION_DOT = .7031E-4
MEAN_MOTION_DDOT = 0

CCSDS_OMM_VERS = 2.0
CREATION_DATE  = 
ORIGINATOR     = 

OBJECT_NAME    = GALAPAGOS-UTE-SWSU
OBJECT_ID      = 2025-313AH
CENTER_NAME    = EARTH
REF_FRAME      = TEME
TIME_SYSTEM    = UTC
MEAN_ELEMENT_THEORY = SGP/SGP4

EPOCH          = 2026-01-17T11:45:41.208192
MEAN_MOTION    = 15.20314357
ECCENTRICITY   = .00151941
INCLINATION    = 97.4103
RA_OF_ASC_NODE = 94.6155
ARG_OF_PERICENTER = 167.5333
MEAN_ANOMALY   = 192.6282

EPHEMERIS_TYPE = 0
CLASSIFICATION_TYPE = U
NORAD_CAT_ID   = 67279
ELEMENT_SET_NO = 999
REV_AT_EPOCH   = 303
BSTAR          = .40875338E-3
MEAN_MOTION_DOT = .8846E-4
MEAN_MOTION_DDOT = 0

CCSDS_OMM_VERS = 2.0
CREATION_DATE  = 
ORIGINATOR     = 

OBJECT_NAME    = 2025-313AJ
OBJECT_ID      = 2025-313AJ
CENTER_NAME    = EARTH
REF_FRAME      = TEME
TIME_SYSTEM    = UTC
MEAN_ELEMENT_THEORY = SGP/SGP4

EPOCH          = 2026-01-17T11:39:24.455808
MEAN_MOTION    = 15.20600452
ECCENTRICITY   = .00141343
INCLINATION    = 97.4173
RA_OF_ASC_NODE = 94.6270
ARG_OF_PERICENTER = 164.1291
MEAN_ANOMALY   = 196.0390

EPHEMERIS_TYPE = 0
CLASSIFICATION_TYPE = U
NORAD_CAT_ID   = 67280
ELEMENT_SET_NO = 999
REV_AT_EPOCH   = 303
BSTAR          = .28601769E-3
MEAN_MOTION_DOT = .6217E-4
MEAN_MOTION_DDOT = 0

CCSDS_OMM_VERS = 2.0
CREATION_DATE  = 
ORIGINATOR     = 

OBJECT_NAME    = 2025-313AK
OBJECT_ID      = 2025-313AK
CENTER_NAME    = EARTH
REF_FRAME      = TEME
TIME_SYSTEM    = UTC
MEAN_ELEMENT_THEORY = SGP/SGP4

EPOCH          = 2026-01-17T13:12:27.228096
MEAN_MOTION    = 15.20692162
ECCENTRICITY   = .00128608
INCLINATION    = 97.4057
RA_OF_ASC_NODE = 94.6736
ARG_OF_PERICENTER = 162.7148
MEAN_ANOMALY   = 197.4528

EPHEMERIS_TYPE = 0
CLASSIFICATION_TYPE = U
NORAD_CAT_ID   = 67281
ELEMENT_SET_NO = 999
REV_AT_EPOCH   = 304
BSTAR          = .26983307E-3
MEAN_MOTION_DOT = .5874E-4
MEAN_MOTION_DDOT = 0

CCSDS_OMM_VERS = 2.0
CREATION_DATE  = 
ORIGINATOR     = 

OBJECT_NAME    = 2025-313AL
OBJECT_ID      = 2025-313AL
CENTER_NAME    = EARTH
REF_FRAME      = TEME
TIME_SYSTEM    = UTC
MEAN_ELEMENT_THEORY = SGP/SGP4

EPOCH          = 2026-01-17T14:40:15.656448
MEAN_MOTION    = 15.21072465
ECCENTRICITY   = .00116346
INCLINATION    = 97.4105
RA_OF_ASC_NODE = 94.7455
ARG_OF_PERICENTER = 161.4461
MEAN_ANOMALY   = 198.7201

EPHEMERIS_TYPE = 0
CLASSIFICATION_TYPE = U
NORAD_CAT_ID   = 67282
ELEMENT_SET_NO = 999
REV_AT_EPOCH   = 305
BSTAR          = .27351324E-3
MEAN_MOTION_DOT = .602E-4
MEAN_MOTION_DDOT = 0

CCSDS_OMM_VERS = 2.0
CREATION_DATE  = 
ORIGINATOR     = 

OBJECT_NAME    = HORS 5
OBJECT_ID      = 2025-313AM
CENTER_NAME    = EARTH
REF_FRAME      = TEME
TIME_SYSTEM    = UTC
MEAN_ELEMENT_THEORY = SGP/SGP4

EPOCH          = 2026-01-17T14:38:45.997440
MEAN_MOTION    = 15.21216375
ECCENTRICITY   = .00115189
INCLINATION    = 97.4114
RA_OF_ASC_NODE = 94.7493
ARG_OF_PERICENTER = 161.3271
MEAN_ANOMALY   = 198.8389

EPHEMERIS_TYPE = 0
CLASSIFICATION_TYPE = U
NORAD_CAT_ID   = 67283
ELEMENT_SET_NO = 999
REV_AT_EPOCH   = 305
BSTAR          = .39877943E-3
MEAN_MOTION_DOT = .8848E-4
MEAN_MOTION_DDOT = 0

CCSDS_OMM_VERS = 2.0
CREATION_DATE  = 
ORIGINATOR     = 

OBJECT_NAME    = LOBACHEVSKY (RS83S)
OBJECT_ID      = 2025-313AN
CENTER_NAME    = EARTH
REF_FRAME      = TEME
TIME_SYSTEM    = UTC
MEAN_ELEMENT_THEORY = SGP/SGP4

EPOCH          = 2026-01-17T14:40:33.514464
MEAN_MOTION    = 15.21011342
ECCENTRICITY   = .0011528
INCLINATION    = 97.4097
RA_OF_ASC_NODE = 94.7432
ARG_OF_PERICENTER = 161.2837
MEAN_ANOMALY   = 198.8825

EPHEMERIS_TYPE = 0
CLASSIFICATION_TYPE = U
NORAD_CAT_ID   = 67284
ELEMENT_SET_NO = 999
REV_AT_EPOCH   = 305
BSTAR          = .17108212E-3
MEAN_MOTION_DOT = .3731E-4
MEAN_MOTION_DDOT = 0

CCSDS_OMM_VERS = 2.0
CREATION_DATE  = 
ORIGINATOR     = 

OBJECT_NAME    = NASBSAT-2
OBJECT_ID      = 2025-313AP
CENTER_NAME    = EARTH
REF_FRAME      = TEME
TIME_SYSTEM    = UTC
MEAN_ELEMENT_THEORY = SGP/SGP4

EPOCH          = 2026-01-17T14:37:28.476768
MEAN_MOTION    = 15.21273339
ECCENTRICITY   = .00111466
INCLINATION    = 97.4092
RA_OF_ASC_NODE = 94.7437
ARG_OF_PERICENTER = 162.6785
MEAN_ANOMALY   = 197.4833

EPHEMERIS_TYPE = 0
CLASSIFICATION_TYPE = U
NORAD_CAT_ID   = 67285
ELEMENT_SET_NO = 999
REV_AT_EPOCH   = 305
BSTAR          = .38397733E-3
MEAN_MOTION_DOT = .853E-4
MEAN_MOTION_DDOT = 0

CCSDS_OMM_VERS = 2.0
CREATION_DATE  = 
ORIGINATOR     = 

OBJECT_NAME    = 2025-313AQ
OBJECT_ID      = 2025-313AQ
CENTER_NAME    = EARTH
REF_FRAME      = TEME
TIME_SYSTEM    = UTC
MEAN_ELEMENT_THEORY = SGP/SGP4

EPOCH          = 2026-01-16T22:49:28.704288
MEAN_MOTION    = 15.21252048
ECCENTRICITY   = .00107976
INCLINATION    = 97.4113
RA_OF_ASC_NODE = 94.1113
ARG_OF_PERICENTER = 159.8863
MEAN_ANOMALY   = 200.2800

EPHEMERIS_TYPE = 0
CLASSIFICATION_TYPE = U
NORAD_CAT_ID   = 67286
ELEMENT_SET_NO = 999
REV_AT_EPOCH   = 295
BSTAR          = .42042906E-3
MEAN_MOTION_DOT = .9341E-4
MEAN_MOTION_DDOT = 0

CCSDS_OMM_VERS = 2.0
CREATION_DATE  = 
ORIGINATOR     = 

OBJECT_NAME    = LUCA (RS90S)
OBJECT_ID      = 2025-313AR
CENTER_NAME    = EARTH
REF_FRAME      = TEME
TIME_SYSTEM    = UTC
MEAN_ELEMENT_THEORY = SGP/SGP4

EPOCH          = 2026-01-17T14:35:32.088192
MEAN_MOTION    = 15.21397508
ECCENTRICITY   = .0010733
INCLINATION    = 97.4113
RA_OF_ASC_NODE = 94.7602
ARG_OF_PERICENTER = 159.4542
MEAN_ANOMALY   = 200.7127

EPHEMERIS_TYPE = 0
CLASSIFICATION_TYPE = U
NORAD_CAT_ID   = 67287
ELEMENT_SET_NO = 999
REV_AT_EPOCH   = 305
BSTAR          = .42417774E-3
MEAN_MOTION_DOT = .9465E-4
MEAN_MOTION_DDOT = 0

